STARLINK-31036          
1 58533U 23192C   26068.37309796 -.00000408  00000+0 -16685-5 0  9991
2 58533  53.1619  64.4708 0001236 102.6931 257.4208 15.30189055125939
FLOCK 4G-13             
1 62621U 25009N   26068.70638971  .00053076  00000+0  16695-2 0  9995
2 62621  97.4019 151.0918 0003801 292.7207  67.3633 15.32770015 63700
