[{"OBJECT_NAME":"STARLINK-31036","OBJECT_ID":"2023-192C","EPOCH":"2026-03-09T08:57:15.663744","MEAN_MOTION":15.30189055,"ECCENTRICITY":0.0001236,"INCLINATION":53.1619,"RA_OF_ASC_NODE":64.4708,"ARG_OF_PERICENTER":102.6931,"MEAN_ANOMALY":257.4208,"EPHEMERIS_TYPE":0,"CLASSIFICATION_TYPE":"U","NORAD_CAT_ID":58533,"ELEMENT_SET_NO":999,"REV_AT_EPOCH":12593,"BSTAR":-1.668516e-6,"MEAN_MOTION_DOT":-4.08e-6,"MEAN_MOTION_DDOT":0},{"OBJECT_NAME":"FLOCK 4G-13","OBJECT_ID":"2025-009N","EPOCH":"2026-03-09T16:57:12.071808","MEAN_MOTION":15.32770015,"ECCENTRICITY":0.0003801,"INCLINATION":97.4019,"RA_OF_ASC_NODE":151.0918,"ARG_OF_PERICENTER":292.7207,"MEAN_ANOMALY":67.3633,"EPHEMERIS_TYPE":0,"CLASSIFICATION_TYPE":"U","NORAD_CAT_ID":62621,"ELEMENT_SET_NO":999,"REV_AT_EPOCH":6370,"BSTAR":0.0016695386,"MEAN_MOTION_DOT":0.00053076,"MEAN_MOTION_DDOT":0}]
